<?xml version="1.0" encoding="UTF-8"?>
<ndm xmlns:xsi="http://www.w3.org/2001/XMLSchema-instance" xsi:noNamespaceSchemaLocation="https://sanaregistry.org/r/ndmxml_unqualified/ndmxml-2.0.0-master-2.0.xsd">
<omm id="CCSDS_OMM_VERS" version="2.0">
<header><CREATION_DATE/><ORIGINATOR/></header><body><segment><metadata><OBJECT_NAME>STARLINK-33881</OBJECT_NAME><OBJECT_ID>2025-091E</OBJECT_ID><CENTER_NAME>EARTH</CENTER_NAME><REF_FRAME>TEME</REF_FRAME><TIME_SYSTEM>UTC</TIME_SYSTEM><MEAN_ELEMENT_THEORY>SGP4</MEAN_ELEMENT_THEORY></metadata><data><meanElements><EPOCH>2025-05-08T06:00:02.000160</EPOCH><MEAN_MOTION>15.92625849</MEAN_MOTION><ECCENTRICITY>.0002066</ECCENTRICITY><INCLINATION>43.0006</INCLINATION><RA_OF_ASC_NODE>346.7306</RA_OF_ASC_NODE><ARG_OF_PERICENTER>262.8003</ARG_OF_PERICENTER><MEAN_ANOMALY>100.8433</MEAN_ANOMALY></meanElements><tleParameters><EPHEMERIS_TYPE>0</EPHEMERIS_TYPE><CLASSIFICATION_TYPE>U</CLASSIFICATION_TYPE><NORAD_CAT_ID>63779</NORAD_CAT_ID><ELEMENT_SET_NO>999</ELEMENT_SET_NO><REV_AT_EPOCH>207</REV_AT_EPOCH><BSTAR>-.24082E-2</BSTAR><MEAN_MOTION_DOT>-.858019E-2</MEAN_MOTION_DOT><MEAN_MOTION_DDOT>.23001E-3</MEAN_MOTION_DDOT></tleParameters></data></segment></body></omm>
<omm id="CCSDS_OMM_VERS" version="2.0">
<header><CREATION_DATE/><ORIGINATOR/></header><body><segment><metadata><OBJECT_NAME>STARLINK-33846</OBJECT_NAME><OBJECT_ID>2025-091F</OBJECT_ID><CENTER_NAME>EARTH</CENTER_NAME><REF_FRAME>TEME</REF_FRAME><TIME_SYSTEM>UTC</TIME_SYSTEM><MEAN_ELEMENT_THEORY>SGP4</MEAN_ELEMENT_THEORY></metadata><data><meanElements><EPOCH>2025-05-07T22:00:01.999584</EPOCH><MEAN_MOTION>15.93219822</MEAN_MOTION><ECCENTRICITY>.0001929</ECCENTRICITY><INCLINATION>43.0006</INCLINATION><RA_OF_ASC_NODE>348.8048</RA_OF_ASC_NODE><ARG_OF_PERICENTER>265.2385</ARG_OF_PERICENTER><MEAN_ANOMALY>346.2948</MEAN_ANOMALY></meanElements><tleParameters><EPHEMERIS_TYPE>0</EPHEMERIS_TYPE><CLASSIFICATION_TYPE>U</CLASSIFICATION_TYPE><NORAD_CAT_ID>63780</NORAD_CAT_ID><ELEMENT_SET_NO>999</ELEMENT_SET_NO><REV_AT_EPOCH>208</REV_AT_EPOCH><BSTAR>-.22049E-2</BSTAR><MEAN_MOTION_DOT>-.810896E-2</MEAN_MOTION_DOT><MEAN_MOTION_DDOT>.20879E-3</MEAN_MOTION_DDOT></tleParameters></data></segment></body></omm>
<omm id="CCSDS_OMM_VERS" version="2.0">
<header><CREATION_DATE/><ORIGINATOR/></header><body><segment><metadata><OBJECT_NAME>STARLINK-33883</OBJECT_NAME><OBJECT_ID>2025-091G</OBJECT_ID><CENTER_NAME>EARTH</CENTER_NAME><REF_FRAME>TEME</REF_FRAME><TIME_SYSTEM>UTC</TIME_SYSTEM><MEAN_ELEMENT_THEORY>SGP4</MEAN_ELEMENT_THEORY></metadata><data><meanElements><EPOCH>2025-05-07T22:00:01.999584</EPOCH><MEAN_MOTION>15.93319942</MEAN_MOTION><ECCENTRICITY>.000187</ECCENTRICITY><INCLINATION>43.0007</INCLINATION><RA_OF_ASC_NODE>348.8008</RA_OF_ASC_NODE><ARG_OF_PERICENTER>259.4817</ARG_OF_PERICENTER><MEAN_ANOMALY>353.6320</MEAN_ANOMALY></meanElements><tleParameters><EPHEMERIS_TYPE>0</EPHEMERIS_TYPE><CLASSIFICATION_TYPE>U</CLASSIFICATION_TYPE><NORAD_CAT_ID>63781</NORAD_CAT_ID><ELEMENT_SET_NO>999</ELEMENT_SET_NO><REV_AT_EPOCH>203</REV_AT_EPOCH><BSTAR>-.221E-2</BSTAR><MEAN_MOTION_DOT>-.81703E-2</MEAN_MOTION_DOT><MEAN_MOTION_DDOT>.21187E-3</MEAN_MOTION_DDOT></tleParameters></data></segment></body></omm>
<omm id="CCSDS_OMM_VERS" version="2.0">
<header><CREATION_DATE/><ORIGINATOR/></header><body><segment><metadata><OBJECT_NAME>STARLINK-33842</OBJECT_NAME><OBJECT_ID>2025-091H</OBJECT_ID><CENTER_NAME>EARTH</CENTER_NAME><REF_FRAME>TEME</REF_FRAME><TIME_SYSTEM>UTC</TIME_SYSTEM><MEAN_ELEMENT_THEORY>SGP4</MEAN_ELEMENT_THEORY></metadata><data><meanElements><EPOCH>2025-05-07T22:00:01.999584</EPOCH><MEAN_MOTION>15.93369432</MEAN_MOTION><ECCENTRICITY>.0001913</ECCENTRICITY><INCLINATION>43.0006</INCLINATION><RA_OF_ASC_NODE>348.7983</RA_OF_ASC_NODE><ARG_OF_PERICENTER>266.3877</ARG_OF_PERICENTER><MEAN_ANOMALY>347.7051</MEAN_ANOMALY></meanElements><tleParameters><EPHEMERIS_TYPE>0</EPHEMERIS_TYPE><CLASSIFICATION_TYPE>U</CLASSIFICATION_TYPE><NORAD_CAT_ID>63782</NORAD_CAT_ID><ELEMENT_SET_NO>999</ELEMENT_SET_NO><REV_AT_EPOCH>212</REV_AT_EPOCH><BSTAR>-.22045E-2</BSTAR><MEAN_MOTION_DOT>-.81714E-2</MEAN_MOTION_DOT><MEAN_MOTION_DDOT>.21203E-3</MEAN_MOTION_DDOT></tleParameters></data></segment></body></omm>
<omm id="CCSDS_OMM_VERS" version="2.0">
<header><CREATION_DATE/><ORIGINATOR/></header><body><segment><metadata><OBJECT_NAME>STARLINK-33892</OBJECT_NAME><OBJECT_ID>2025-091J</OBJECT_ID><CENTER_NAME>EARTH</CENTER_NAME><REF_FRAME>TEME</REF_FRAME><TIME_SYSTEM>UTC</TIME_SYSTEM><MEAN_ELEMENT_THEORY>SGP4</MEAN_ELEMENT_THEORY></metadata><data><meanElements><EPOCH>2025-05-07T22:00:01.999584</EPOCH><MEAN_MOTION>15.93473839</MEAN_MOTION><ECCENTRICITY>.0001921</ECCENTRICITY><INCLINATION>43.0007</INCLINATION><RA_OF_ASC_NODE>348.7941</RA_OF_ASC_NODE><ARG_OF_PERICENTER>255.4149</ARG_OF_PERICENTER><MEAN_ANOMALY>0.3655</MEAN_ANOMALY></meanElements><tleParameters><EPHEMERIS_TYPE>0</EPHEMERIS_TYPE><CLASSIFICATION_TYPE>U</CLASSIFICATION_TYPE><NORAD_CAT_ID>63783</NORAD_CAT_ID><ELEMENT_SET_NO>999</ELEMENT_SET_NO><REV_AT_EPOCH>203</REV_AT_EPOCH><BSTAR>-.21937E-2</BSTAR><MEAN_MOTION_DOT>-.817645E-2</MEAN_MOTION_DOT><MEAN_MOTION_DDOT>.21249E-3</MEAN_MOTION_DDOT></tleParameters></data></segment></body></omm>
<omm id="CCSDS_OMM_VERS" version="2.0">
<header><CREATION_DATE/><ORIGINATOR/></header><body><segment><metadata><OBJECT_NAME>STARLINK-33933</OBJECT_NAME><OBJECT_ID>2025-091K</OBJECT_ID><CENTER_NAME>EARTH</CENTER_NAME><REF_FRAME>TEME</REF_FRAME><TIME_SYSTEM>UTC</TIME_SYSTEM><MEAN_ELEMENT_THEORY>SGP4</MEAN_ELEMENT_THEORY></metadata><data><meanElements><EPOCH>2025-05-07T22:00:01.999584</EPOCH><MEAN_MOTION>15.93590961</MEAN_MOTION><ECCENTRICITY>.0001891</ECCENTRICITY><INCLINATION>43.0007</INCLINATION><RA_OF_ASC_NODE>348.7899</RA_OF_ASC_NODE><ARG_OF_PERICENTER>265.0150</ARG_OF_PERICENTER><MEAN_ANOMALY>352.5377</MEAN_ANOMALY></meanElements><tleParameters><EPHEMERIS_TYPE>0</EPHEMERIS_TYPE><CLASSIFICATION_TYPE>U</CLASSIFICATION_TYPE><NORAD_CAT_ID>63784</NORAD_CAT_ID><ELEMENT_SET_NO>999</ELEMENT_SET_NO><REV_AT_EPOCH>214</REV_AT_EPOCH><BSTAR>-.22078E-2</BSTAR><MEAN_MOTION_DOT>-.827942E-2</MEAN_MOTION_DOT><MEAN_MOTION_DDOT>.21763E-3</MEAN_MOTION_DDOT></tleParameters></data></segment></body></omm>
<omm id="CCSDS_OMM_VERS" version="2.0">
<header><CREATION_DATE/><ORIGINATOR/></header><body><segment><metadata><OBJECT_NAME>STARLINK-33906</OBJECT_NAME><OBJECT_ID>2025-091L</OBJECT_ID><CENTER_NAME>EARTH</CENTER_NAME><REF_FRAME>TEME</REF_FRAME><TIME_SYSTEM>UTC</TIME_SYSTEM><MEAN_ELEMENT_THEORY>SGP4</MEAN_ELEMENT_THEORY></metadata><data><meanElements><EPOCH>2025-05-07T22:00:01.999584</EPOCH><MEAN_MOTION>15.93672113</MEAN_MOTION><ECCENTRICITY>.0002013</ECCENTRICITY><INCLINATION>43.0007</INCLINATION><RA_OF_ASC_NODE>348.7860</RA_OF_ASC_NODE><ARG_OF_PERICENTER>266.3205</ARG_OF_PERICENTER><MEAN_ANOMALY>352.5917</MEAN_ANOMALY></meanElements><tleParameters><EPHEMERIS_TYPE>0</EPHEMERIS_TYPE><CLASSIFICATION_TYPE>U</CLASSIFICATION_TYPE><NORAD_CAT_ID>63785</NORAD_CAT_ID><ELEMENT_SET_NO>999</ELEMENT_SET_NO><REV_AT_EPOCH>198</REV_AT_EPOCH><BSTAR>-.22027E-2</BSTAR><MEAN_MOTION_DOT>-.829604E-2</MEAN_MOTION_DOT><MEAN_MOTION_DDOT>.2186E-3</MEAN_MOTION_DDOT></tleParameters></data></segment></body></omm>
<omm id="CCSDS_OMM_VERS" version="2.0">
<header><CREATION_DATE/><ORIGINATOR/></header><body><segment><metadata><OBJECT_NAME>STARLINK-33923</OBJECT_NAME><OBJECT_ID>2025-091M</OBJECT_ID><CENTER_NAME>EARTH</CENTER_NAME><REF_FRAME>TEME</REF_FRAME><TIME_SYSTEM>UTC</TIME_SYSTEM><MEAN_ELEMENT_THEORY>SGP4</MEAN_ELEMENT_THEORY></metadata><data><meanElements><EPOCH>2025-05-07T22:00:01.999584</EPOCH><MEAN_MOTION>15.93759608</MEAN_MOTION><ECCENTRICITY>.0002066</ECCENTRICITY><INCLINATION>43.0008</INCLINATION><RA_OF_ASC_NODE>348.7827</RA_OF_ASC_NODE><ARG_OF_PERICENTER>268.5545</ARG_OF_PERICENTER><MEAN_ANOMALY>351.7944</MEAN_ANOMALY></meanElements><tleParameters><EPHEMERIS_TYPE>0</EPHEMERIS_TYPE><CLASSIFICATION_TYPE>U</CLASSIFICATION_TYPE><NORAD_CAT_ID>63786</NORAD_CAT_ID><ELEMENT_SET_NO>999</ELEMENT_SET_NO><REV_AT_EPOCH>198</REV_AT_EPOCH><BSTAR>-.21992E-2</BSTAR><MEAN_MOTION_DOT>-.832137E-2</MEAN_MOTION_DOT><MEAN_MOTION_DDOT>.22001E-3</MEAN_MOTION_DDOT></tleParameters></data></segment></body></omm>

</ndm>